{
  "type": "FeatureCollection",
  "features": [
    {
      "type": "Feature",
      "properties": {
        "norad_id": 32099,
        "name": "FENGYUN 1C DEB",
        "group": "fengyun-1c-debris",
        "lat": -59.85941416889455,
        "lon": 136.20329321750796,
        "alt_km": 679.5024972321744,
        "timestamp": "2025-12-26T07:29:18.741089+00:00",
        "meta_object_name": "FENGYUN 1C DEB",
        "meta_object_id": "1999-025CQR",
        "meta_epoch": "2025-12-13T04:24:17.454240",
        "meta_mean_motion": 13.91775545,
        "meta_eccentricity": 0.03428827,
        "meta_inclination": 98.2819,
        "meta_ra_of_asc_node": 318.9761,
        "meta_arg_of_pericenter": 273.8166,
        "meta_mean_anomaly": 102.561,
        "meta_ephemeris_type": 0,
        "meta_classification_type": "U",
        "meta_norad_cat_id": 32099,
        "meta_element_set_no": 999,
        "meta_rev_at_epoch": 64694,
        "meta_bstar": 0.0015539286,
        "meta_mean_motion_dot": 3.154e-05,
        "meta_mean_motion_ddot": 0,
        "tle_line1": "1 32099U 99025CQR 25347.18353535  .00003154  00000+0  15539-2 0  9999",
        "tle_line2": "2 32099  98.2819 318.9761 0342882 273.8166 102.5610 13.91775545646948"
      },
      "geometry": {
        "type": "Point",
        "coordinates": [
          136.20329321750796,
          -59.85941416889455
        ]
      }
    },
    {
      "type": "Feature",
      "properties": {
        "norad_id": 32101,
        "name": "FENGYUN 1C DEB",
        "group": "fengyun-1c-debris",
        "lat": 80.41737809955946,
        "lon": -171.20550117501963,
        "alt_km": 915.0681635065675,
        "timestamp": "2025-12-26T07:29:18.741099+00:00",
        "meta_object_name": "FENGYUN 1C DEB",
        "meta_object_id": "1999-025CQT",
        "meta_epoch": "2025-12-23T00:15:46.694304",
        "meta_mean_motion": 14.01707747,
        "meta_eccentricity": 0.0119878,
        "meta_inclination": 99.0338,
        "meta_ra_of_asc_node": 255.9717,
        "meta_arg_of_pericenter": 210.0418,
        "meta_mean_anomaly": 149.3833,
        "meta_ephemeris_type": 0,
        "meta_classification_type": "U",
        "meta_norad_cat_id": 32101,
        "meta_element_set_no": 999,
        "meta_rev_at_epoch": 93326,
        "meta_bstar": 0.0018843239,
        "meta_mean_motion_dot": 3e-05,
        "meta_mean_motion_ddot": 0,
        "tle_line1": "1 32101U 99025CQT 25357.01095711  .00003000  00000+0  18843-2 0  9996",
        "tle_line2": "2 32101  99.0338 255.9717 0119878 210.0418 149.3833 14.01707747933269"
      },
      "geometry": {
        "type": "Point",
        "coordinates": [
          -171.20550117501963,
          80.41737809955946
        ]
      }
    },
    {
      "type": "Feature",
      "properties": {
        "norad_id": 32105,
        "name": "FENGYUN 1C DEB",
        "group": "fengyun-1c-debris",
        "lat": -72.00726834564568,
        "lon": 43.75954048341828,
        "alt_km": 1276.1158603422618,
        "timestamp": "2025-12-26T07:29:18.741109+00:00",
        "meta_object_name": "FENGYUN 1C DEB",
        "meta_object_id": "1999-025CQX",
        "meta_epoch": "2025-12-25T19:20:05.450496",
        "meta_mean_motion": 13.40328761,
        "meta_eccentricity": 0.03952631,
        "meta_inclination": 103.4646,
        "meta_ra_of_asc_node": 355.5577,
        "meta_arg_of_pericenter": 47.9513,
        "meta_mean_anomaly": 315.4535,
        "meta_ephemeris_type": 0,
        "meta_classification_type": "U",
        "meta_norad_cat_id": 32105,
        "meta_element_set_no": 999,
        "meta_rev_at_epoch": 59886,
        "meta_bstar": 0.003021239,
        "meta_mean_motion_dot": 2.546e-05,
        "meta_mean_motion_ddot": 0,
        "tle_line1": "1 32105U 99025CQX 25359.80561864  .00002546  00000+0  30212-2 0  9994",
        "tle_line2": "2 32105 103.4646 355.5577 0395263  47.9513 315.4535 13.40328761598868"
      },
      "geometry": {
        "type": "Point",
        "coordinates": [
          43.75954048341828,
          -72.00726834564568
        ]
      }
    },
    {
      "type": "Feature",
      "properties": {
        "norad_id": 32106,
        "name": "FENGYUN 1C DEB",
        "group": "fengyun-1c-debris",
        "lat": 44.094978575039924,
        "lon": 167.2093011147925,
        "alt_km": 845.1866336516168,
        "timestamp": "2025-12-26T07:29:18.741119+00:00",
        "meta_object_name": "FENGYUN 1C DEB",
        "meta_object_id": "1999-025CQY",
        "meta_epoch": "2025-12-23T16:36:55.662624",
        "meta_mean_motion": 14.27206286,
        "meta_eccentricity": 0.01104757,
        "meta_inclination": 101.4633,
        "meta_ra_of_asc_node": 332.4461,
        "meta_arg_of_pericenter": 13.7084,
        "meta_mean_anomaly": 346.7045,
        "meta_ephemeris_type": 0,
        "meta_classification_type": "U",
        "meta_norad_cat_id": 32106,
        "meta_element_set_no": 999,
        "meta_rev_at_epoch": 69548,
        "meta_bstar": 0.0041517084,
        "meta_mean_motion_dot": 0.00010773,
        "meta_mean_motion_ddot": 0,
        "tle_line1": "1 32106U 99025CQY 25357.69231091  .00010773  00000+0  41517-2 0  9997",
        "tle_line2": "2 32106 101.4633 332.4461 0110475  13.7084 346.7045 14.27206286695485"
      },
      "geometry": {
        "type": "Point",
        "coordinates": [
          167.2093011147925,
          44.094978575039924
        ]
      }
    },
    {
      "type": "Feature",
      "properties": {
        "norad_id": 32109,
        "name": "FENGYUN 1C DEB",
        "group": "fengyun-1c-debris",
        "lat": -71.85619579761925,
        "lon": 32.77984894463707,
        "alt_km": 645.7945816417696,
        "timestamp": "2025-12-26T07:29:18.741129+00:00",
        "meta_object_name": "FENGYUN 1C DEB",
        "meta_object_id": "1999-025CRB",
        "meta_epoch": "2025-12-22T21:54:44.575488",
        "meta_mean_motion": 14.33976388,
        "meta_eccentricity": 0.0205156,
        "meta_inclination": 98.359,
        "meta_ra_of_asc_node": 236.1509,
        "meta_arg_of_pericenter": 281.9409,
        "meta_mean_anomaly": 75.8843,
        "meta_ephemeris_type": 0,
        "meta_classification_type": "U",
        "meta_norad_cat_id": 32109,
        "meta_element_set_no": 999,
        "meta_rev_at_epoch": 65034,
        "meta_bstar": 0.00054652989,
        "meta_mean_motion_dot": 1.881e-05,
        "meta_mean_motion_ddot": 0,
        "tle_line1": "1 32109U 99025CRB 25356.91301592  .00001881  00000+0  54653-3 0  9994",
        "tle_line2": "2 32109  98.3590 236.1509 0205156 281.9409  75.8843 14.33976388650344"
      },
      "geometry": {
        "type": "Point",
        "coordinates": [
          32.77984894463707,
          -71.85619579761925
        ]
      }
    },
    {
      "type": "Feature",
      "properties": {
        "norad_id": 32110,
        "name": "FENGYUN 1C DEB",
        "group": "fengyun-1c-debris",
        "lat": 33.32320176814554,
        "lon": 164.4294825391135,
        "alt_km": 783.1610805291812,
        "timestamp": "2025-12-26T07:29:18.741139+00:00",
        "meta_object_name": "FENGYUN 1C DEB",
        "meta_object_id": "1999-025CRC",
        "meta_epoch": "2025-12-22T23:22:37.139808",
        "meta_mean_motion": 14.28961563,
        "meta_eccentricity": 0.00335496,
        "meta_inclination": 99.5437,
        "meta_ra_of_asc_node": 167.13,
        "meta_arg_of_pericenter": 337.3668,
        "meta_mean_anomaly": 174.1359,
        "meta_ephemeris_type": 0,
        "meta_classification_type": "U",
        "meta_norad_cat_id": 32110,
        "meta_element_set_no": 999,
        "meta_rev_at_epoch": 64534,
        "meta_bstar": 0.0014667226,
        "meta_mean_motion_dot": 3.68e-05,
        "meta_mean_motion_ddot": 0,
        "tle_line1": "1 32110U 99025CRC 25356.97404097  .00003680  00000+0  14667-2 0  9995",
        "tle_line2": "2 32110  99.5437 167.1300 0033549 337.3668 174.1359 14.28961563645341"
      },
      "geometry": {
        "type": "Point",
        "coordinates": [
          164.4294825391135,
          33.32320176814554
        ]
      }
    },
    {
      "type": "Feature",
      "properties": {
        "norad_id": 32111,
        "name": "FENGYUN 1C DEB",
        "group": "fengyun-1c-debris",
        "lat": 19.68440588652577,
        "lon": -177.2817063880072,
        "alt_km": 700.6443671437546,
        "timestamp": "2025-12-26T07:29:18.741150+00:00",
        "meta_object_name": "FENGYUN 1C DEB",
        "meta_object_id": "1999-025CRD",
        "meta_epoch": "2025-12-24T11:50:11.297184",
        "meta_mean_motion": 14.3155842,
        "meta_eccentricity": 0.01203266,
        "meta_inclination": 98.4437,
        "meta_ra_of_asc_node": 357.903,
        "meta_arg_of_pericenter": 170.0242,
        "meta_mean_anomaly": 341.8723,
        "meta_ephemeris_type": 0,
        "meta_classification_type": "U",
        "meta_norad_cat_id": 32111,
        "meta_element_set_no": 999,
        "meta_rev_at_epoch": 96199,
        "meta_bstar": 0.00017348243,
        "meta_mean_motion_dot": 4.56e-06,
        "meta_mean_motion_ddot": 0,
        "tle_line1": "1 32111U 99025CRD 25358.49318631  .00000456  00000+0  17348-3 0  9991",
        "tle_line2": "2 32111  98.4437 357.9030 0120326 170.0242 341.8723 14.31558420961997"
      },
      "geometry": {
        "type": "Point",
        "coordinates": [
          -177.2817063880072,
          19.68440588652577
        ]
      }
    }
  ]
}